OBJECT_NAME,OBJECT_ID,EPOCH,MEAN_MOTION,ECCENTRICITY,INCLINATION,RA_OF_ASC_NODE,ARG_OF_PERICENTER,MEAN_ANOMALY,EPHEMERIS_TYPE,CLASSIFICATION_TYPE,NORAD_CAT_ID,ELEMENT_SET_NO,REV_AT_EPOCH,BSTAR,MEAN_MOTION_DOT,MEAN_MOTION_DDOT
LEMUR-2-STARLIGHT,2025-276DY,2026-07-10T03:07:45.492096,14.99316422,.00147717,97.5230,260.9845,62.0755,298.1962,0,U,66783,999,3363,.38742581E-3,.4687E-4,0
LEMUR-2-TARTIFLETTE,2025-276DZ,2026-07-10T23:54:44.712576,14.99308795,.0013856,97.5235,261.8286,67.5753,292.6937,0,U,66784,999,3376,.28423E-3,.3421E-4,0
LEMUR-2-VUKASIN,2025-276EA,2026-07-10T10:28:43.032288,15.00520064,.00037909,97.5242,261.6384,68.8123,291.3506,0,U,66785,999,3363,.28035656E-3,.3477E-4,0
LEMUR-2-HOTSPUR-TOM,2025-276EB,2026-07-10T14:09:37.956960,14.99212666,.0013855,97.5222,261.4122,59.8577,300.4018,0,U,66786,999,3363,.29732E-3,.3572E-4,0
LEMUR-2-MYRA,2025-276EC,2026-07-11T00:03:01.874592,15.00558625,.0018558,97.5220,262.1056,66.9551,293.3628,0,U,66787,999,3378,.29407E-3,.3666E-4,0
LEMUR-2 FIKRETDENGIZ,2026-004A,2026-07-09T17:20:41.873568,14.88491309,.0010439,97.8024,188.9369,71.1066,289.1282,0,U,67363,999,2663,.26760836E-3,.2433E-4,0
TWILIGHT-1 OBJECT B,2026-004B,2026-07-11T12:08:26.049120,14.87785770,.0009956,97.8072,190.6963,56.5620,303.6547,0,U,67364,999,2690,.11821E-3,.1025E-4,0
LEMUR-2-MARIO-SOUSA,2026-004C,2026-07-11T12:26:04.579584,14.88708359,.0010009,97.7995,190.7004,67.4962,292.7314,0,U,67365,999,2691,.25289E-3,.2309E-4,0
LEMUR-2-SONNENBLUME,2026-004E,2026-07-11T12:29:13.411104,14.88441827,.0009562,97.7992,190.6770,68.6974,291.5263,0,U,67367,999,2691,.16081E-3,.1438E-4,0
LEMUR-2-WOBLER,2026-004F,2026-07-11T07:24:17.475840,14.88681461,.0009709,97.8047,190.6154,60.8200,299.3987,0,U,67368,999,2688,.21191E-3,.1924E-4,0
LEMUR-2-GRAM-E-SUE,2026-004H,2026-07-11T12:02:57.100992,14.88579696,.0008751,97.7979,190.6754,71.0055,289.2110,0,U,67370,999,2691,.12819E-3,.1139E-4,0
LEMUR-2-KATIE,2026-004AA,2026-07-11T12:43:34.540032,14.90230139,.0003762,97.8041,191.2424,42.1241,318.0266,0,U,67387,999,2693,.30563E-3,.2909E-4,0
LEMUR-2-HCS-BAZUS,2026-004AB,2026-07-11T12:41:15.586368,14.90248850,.0003252,97.8030,191.2196,42.3339,317.8129,0,U,67388,999,2693,.17443E-3,.1637E-4,0
